{
  "type": "FeatureCollection",
  "features": [
    {
      "type": "Feature",
      "properties": {
        "norad_id": 30110,
        "name": "FENGYUN 1C DEB",
        "group": "fengyun-1c-debris",
        "lat": -29.436803984830412,
        "lon": -79.18543731390015,
        "alt_km": 1131.0551644805882,
        "timestamp": "2025-12-24T03:53:29.920970+00:00",
        "meta_object_name": "FENGYUN 1C DEB",
        "meta_object_id": "1999-025RP",
        "meta_epoch": "2025-12-23T05:35:31.111008",
        "meta_mean_motion": 13.56229264,
        "meta_eccentricity": 0.0267237,
        "meta_inclination": 98.9076,
        "meta_ra_of_asc_node": 105.0507,
        "meta_arg_of_pericenter": 325.9898,
        "meta_mean_anomaly": 32.436,
        "meta_ephemeris_type": 0,
        "meta_classification_type": "U",
        "meta_norad_cat_id": 30110,
        "meta_element_set_no": 999,
        "meta_rev_at_epoch": 93657,
        "meta_bstar": 0.00027683423,
        "meta_mean_motion_dot": 2.05e-06,
        "meta_mean_motion_ddot": 0,
        "tle_line1": "1 30110U 99025RP  25357.23299897  .00000205  00000+0  27683-3 0  9996",
        "tle_line2": "2 30110  98.9076 105.0507 0267237 325.9898  32.4360 13.56229264936573"
      },
      "geometry": {
        "type": "Point",
        "coordinates": [
          -79.18543731390015,
          -29.436803984830412
        ]
      }
    },
    {
      "type": "Feature",
      "properties": {
        "norad_id": 30112,
        "name": "FENGYUN 1C DEB",
        "group": "fengyun-1c-debris",
        "lat": -53.86575457040622,
        "lon": 139.76955805203394,
        "alt_km": 960.4602949587452,
        "timestamp": "2025-12-24T03:53:29.920981+00:00",
        "meta_object_name": "FENGYUN 1C DEB",
        "meta_object_id": "1999-025RR",
        "meta_epoch": "2025-12-23T16:40:28.966080",
        "meta_mean_motion": 14.2225367,
        "meta_eccentricity": 0.0201857,
        "meta_inclination": 99.2828,
        "meta_ra_of_asc_node": 332.2218,
        "meta_arg_of_pericenter": 76.6158,
        "meta_mean_anomaly": 285.7433,
        "meta_ephemeris_type": 0,
        "meta_classification_type": "U",
        "meta_norad_cat_id": 30112,
        "meta_element_set_no": 999,
        "meta_rev_at_epoch": 97738,
        "meta_bstar": 0.00055921,
        "meta_mean_motion_dot": 1.478e-05,
        "meta_mean_motion_ddot": 0,
        "tle_line1": "1 30112U 99025RR  25357.69477970  .00001478  00000+0  55921-3 0  9997",
        "tle_line2": "2 30112  99.2828 332.2218 0201857  76.6158 285.7433 14.22253670977382"
      },
      "geometry": {
        "type": "Point",
        "coordinates": [
          139.76955805203394,
          -53.86575457040622
        ]
      }
    },
    {
      "type": "Feature",
      "properties": {
        "norad_id": 30113,
        "name": "FENGYUN 1C DEB",
        "group": "fengyun-1c-debris",
        "lat": -15.393384509775128,
        "lon": -146.4104727950526,
        "alt_km": 717.4180740066531,
        "timestamp": "2025-12-24T03:53:29.920992+00:00",
        "meta_object_name": "FENGYUN 1C DEB",
        "meta_object_id": "1999-025RS",
        "meta_epoch": "2025-12-22T12:24:49.286304",
        "meta_mean_motion": 14.4544519,
        "meta_eccentricity": 0.00405026,
        "meta_inclination": 99.037,
        "meta_ra_of_asc_node": 209.3281,
        "meta_arg_of_pericenter": 333.7695,
        "meta_mean_anomaly": 95.9669,
        "meta_ephemeris_type": 0,
        "meta_classification_type": "U",
        "meta_norad_cat_id": 30113,
        "meta_element_set_no": 999,
        "meta_rev_at_epoch": 98050,
        "meta_bstar": 0.0020865947,
        "meta_mean_motion_dot": 7.379e-05,
        "meta_mean_motion_ddot": 0,
        "tle_line1": "1 30113U 99025RS  25356.51723711  .00007379  00000+0  20866-2 0  9990",
        "tle_line2": "2 30113  99.0370 209.3281 0040502 333.7695  95.9669 14.45445190980503"
      },
      "geometry": {
        "type": "Point",
        "coordinates": [
          -146.4104727950526,
          -15.393384509775128
        ]
      }
    },
    {
      "type": "Feature",
      "properties": {
        "norad_id": 30114,
        "name": "FENGYUN 1C DEB",
        "group": "fengyun-1c-debris",
        "lat": 73.2780535751798,
        "lon": -148.9725202255129,
        "alt_km": 796.255311018399,
        "timestamp": "2025-12-24T03:53:29.921002+00:00",
        "meta_object_name": "FENGYUN 1C DEB",
        "meta_object_id": "1999-025RT",
        "meta_epoch": "2025-12-23T17:59:56.630400",
        "meta_mean_motion": 14.09659886,
        "meta_eccentricity": 0.0082354,
        "meta_inclination": 98.747,
        "meta_ra_of_asc_node": 359.7994,
        "meta_arg_of_pericenter": 89.0075,
        "meta_mean_anomaly": 84.3951,
        "meta_ephemeris_type": 0,
        "meta_classification_type": "U",
        "meta_norad_cat_id": 30114,
        "meta_element_set_no": 999,
        "meta_rev_at_epoch": 97309,
        "meta_bstar": 0.00020631,
        "meta_mean_motion_dot": 3.31e-06,
        "meta_mean_motion_ddot": 0,
        "tle_line1": "1 30114U 99025RT  25357.74996100  .00000331  00000+0  20631-3 0  9993",
        "tle_line2": "2 30114  98.7470 359.7994 0082354  89.0075  84.3951 14.09659886973097"
      },
      "geometry": {
        "type": "Point",
        "coordinates": [
          -148.9725202255129,
          73.2780535751798
        ]
      }
    },
    {
      "type": "Feature",
      "properties": {
        "norad_id": 30115,
        "name": "FENGYUN 1C DEB",
        "group": "fengyun-1c-debris",
        "lat": -49.92218867956592,
        "lon": -165.23670332631332,
        "alt_km": 877.4739231752428,
        "timestamp": "2025-12-24T03:53:29.921013+00:00",
        "meta_object_name": "FENGYUN 1C DEB",
        "meta_object_id": "1999-025RU",
        "meta_epoch": "2025-12-23T01:41:35.784384",
        "meta_mean_motion": 14.19816914,
        "meta_eccentricity": 0.00673226,
        "meta_inclination": 98.6216,
        "meta_ra_of_asc_node": 24.0881,
        "meta_arg_of_pericenter": 30.95,
        "meta_mean_anomaly": 23.5885,
        "meta_ephemeris_type": 0,
        "meta_classification_type": "U",
        "meta_norad_cat_id": 30115,
        "meta_element_set_no": 999,
        "meta_rev_at_epoch": 97475,
        "meta_bstar": 0.00087016205,
        "meta_mean_motion_dot": 1.844e-05,
        "meta_mean_motion_ddot": 0,
        "tle_line1": "1 30115U 99025RU  25357.07055306  .00001844  00000+0  87016-3 0  9994",
        "tle_line2": "2 30115  98.6216  24.0881 0067322  30.9500  23.5885 14.19816914974751"
      },
      "geometry": {
        "type": "Point",
        "coordinates": [
          -165.23670332631332,
          -49.92218867956592
        ]
      }
    },
    {
      "type": "Feature",
      "properties": {
        "norad_id": 30116,
        "name": "FENGYUN 1C DEB",
        "group": "fengyun-1c-debris",
        "lat": -7.192970512986042,
        "lon": -111.11631307622697,
        "alt_km": 805.1876773540434,
        "timestamp": "2025-12-24T03:53:29.921023+00:00",
        "meta_object_name": "FENGYUN 1C DEB",
        "meta_object_id": "1999-025RV",
        "meta_epoch": "2025-12-22T16:27:55.890720",
        "meta_mean_motion": 14.29344968,
        "meta_eccentricity": 0.00207495,
        "meta_inclination": 99.397,
        "meta_ra_of_asc_node": 68.4909,
        "meta_arg_of_pericenter": 311.7848,
        "meta_mean_anomaly": 204.3729,
        "meta_ephemeris_type": 0,
        "meta_classification_type": "U",
        "meta_norad_cat_id": 30116,
        "meta_element_set_no": 999,
        "meta_rev_at_epoch": 97651,
        "meta_bstar": 0.0012754315,
        "meta_mean_motion_dot": 3.206e-05,
        "meta_mean_motion_ddot": 0,
        "tle_line1": "1 30116U 99025RV  25356.68606355  .00003206  00000+0  12754-2 0  9997",
        "tle_line2": "2 30116  99.3970  68.4909 0020749 311.7848 204.3729 14.29344968976515"
      },
      "geometry": {
        "type": "Point",
        "coordinates": [
          -111.11631307622697,
          -7.192970512986042
        ]
      }
    },
    {
      "type": "Feature",
      "properties": {
        "norad_id": 30117,
        "name": "FENGYUN 1C DEB",
        "group": "fengyun-1c-debris",
        "lat": -77.47061815145315,
        "lon": 30.54371310281637,
        "alt_km": 899.2478973261586,
        "timestamp": "2025-12-24T03:53:29.921034+00:00",
        "meta_object_name": "FENGYUN 1C DEB",
        "meta_object_id": "1999-025RW",
        "meta_epoch": "2025-12-23T11:50:29.156928",
        "meta_mean_motion": 14.07169238,
        "meta_eccentricity": 0.0164169,
        "meta_inclination": 98.8052,
        "meta_ra_of_asc_node": 345.6684,
        "meta_arg_of_pericenter": 178.8443,
        "meta_mean_anomaly": 312.3506,
        "meta_ephemeris_type": 0,
        "meta_classification_type": "U",
        "meta_norad_cat_id": 30117,
        "meta_element_set_no": 999,
        "meta_rev_at_epoch": 97140,
        "meta_bstar": 0.0002504,
        "meta_mean_motion_dot": 4.31e-06,
        "meta_mean_motion_ddot": 0,
        "tle_line1": "1 30117U 99025RW  25357.49339302  .00000431  00000+0  25040-3 0  9993",
        "tle_line2": "2 30117  98.8052 345.6684 0164169 178.8443 312.3506 14.07169238971406"
      },
      "geometry": {
        "type": "Point",
        "coordinates": [
          30.54371310281637,
          -77.47061815145315
        ]
      }
    }
  ]
}